NORAD_CAT_ID,OBJECT_NAME,OBJECT_TYPE,EPOCH,MEAN_MOTION,ECCENTRICITY,INCLINATION,RA_OF_ASC_NODE,ARG_OF_PERICENTER,MEAN_ANOMALY,BSTAR,MEAN_MOTION_DOT,MEAN_MOTION_DDOT,TLE_LINE0,TLE_LINE1,TLE_LINE2,SEMIMAJOR_AXIS,PERIOD,APOGEE,PERIGEE,DECAYED
52491.0,STARLINK-3908,PAYLOAD,2023-07-27 04:42:22,15.08832596,6.08e-05,53.2185,22.985,101.4677,258.6383,8.1627e-05,1.012e-05,0.0,0 STARLINK-3908,1 52491U 22049AS  23208.19609500  .00001012  00000-0  81627-4 0  9995,2 52491  53.2185  22.9850 0000608 101.4677 258.6383 15.08832596 68155,6917.903,95.438,540.189,539.347,0.0
52491.0,STARLINK-3908,PAYLOAD,2023-07-27 14:14:42,15.08827676,8.4e-05,53.2191,21.2002,103.0808,257.0278,-3.2588e-05,-8.06e-06,0.0,0 STARLINK-3908,1 52491U 22049AS  23208.59354434 -.00000806  00000-0 -32588-4 0  9996,2 52491  53.2191  21.2002 0000840 103.0808 257.0278 15.08827676 68211,6917.918,95.438,540.364,539.202,0.0
52491.0,STARLINK-3908,PAYLOAD,2023-07-27 20:36:14,15.08835338,0.0001246,53.2171,20.0107,83.8425,276.2709,6.4664e-06,-1.85e-06,0.0,0 STARLINK-3908,1 52491U 22049AS  23208.85850142 -.00000185  00000-0  64664-5 0  9992,2 52491  53.2171  20.0107 0001246  83.8425 276.2709 15.08835338 68095,6917.895,95.438,540.622,538.898,0.0
52491.0,STARLINK-3908,PAYLOAD,2023-07-28 09:19:19,15.08838203,7.55e-05,53.2168,17.6357,97.1188,262.989,6.2894e-05,7.13e-06,0.0,0 STARLINK-3908,1 52491U 22049AS  23209.38841741  .00000713  00000-0  62894-4 0  9994,2 52491  53.2168  17.6357 0000755  97.1188 262.9890 15.08838203 68174,6917.886,95.438,540.273,539.229,0.0
52491.0,STARLINK-3908,PAYLOAD,2023-07-28 17:16:14,15.08846618,6.07e-05,53.2184,16.1475,98.9657,261.1404,2.3102e-05,8e-07,0.0,0 STARLINK-3908,1 52491U 22049AS  23209.71961357  .00000080  00000-0  23102-4 0  9993,2 52491  53.2184  16.1475 0000607  98.9657 261.1404 15.08846618 68387,6917.86,95.437,540.145,539.305,0.0
52491.0,STARLINK-3908,PAYLOAD,2023-07-29 10:45:29,15.08837903,7.1e-05,53.2175,12.8766,95.8548,264.2525,0.00017691,2.529e-05,0.0,0 STARLINK-3908,1 52491U 22049AS  23210.44825588  .00002529  00000-0  17691-3 0  9995,2 52491  53.2175  12.8766 0000710  95.8548 264.2525 15.08837903 68490,6917.887,95.438,540.243,539.261,0.0
52491.0,STARLINK-3908,PAYLOAD,2023-07-29 17:07:01,15.08846546,7.04e-05,53.2175,11.6878,89.9503,270.157,0.00016574,2.352e-05,0.0,0 STARLINK-3908,1 52491U 22049AS  23210.71321218  .00002352  00000-0  16574-3 0  9999,2 52491  53.2175  11.6878 0000704  89.9503 270.1570 15.08846546 68533,6917.86,95.437,540.212,539.238,0.0
52491.0,STARLINK-3908,PAYLOAD,2023-07-30 16:57:48,15.08843326,7.3e-05,53.2171,7.2287,101.4401,258.6673,6.8975e-05,8.1e-06,0.0,0 STARLINK-3908,1 52491U 22049AS  23211.70681490  .00000810  00000-0  68975-4 0  9990,2 52491  53.2171   7.2287 0000730 101.4401 258.6673 15.08843326 68684,6917.87,95.437,540.24,539.23,0.0
52491.0,STARLINK-3908,PAYLOAD,2023-07-31 10:27:04,15.08827743,0.0001279,53.2177,3.9535,108.1845,251.9287,-9.2094e-05,-1.753e-05,0.0,0 STARLINK-3908,1 52491U 22049AS  23212.43547083 -.00001753  00000-0 -92094-4 0  9998,2 52491  53.2177   3.9535 0001279 108.1845 251.9287 15.08827743 68798,6917.918,95.438,540.668,538.898,0.0
52491.0,STARLINK-3908,PAYLOAD,2023-07-31 15:13:14,15.08821359,0.0001192,53.2179,3.0602,116.8259,243.2855,-0.00014193,-2.545e-05,0.0,0 STARLINK-3908,1 52491U 22049AS  23212.63419986 -.00002545  00000-0 -14193-3 0  9993,2 52491  53.2179   3.0602 0001192 116.8259 243.2855 15.08821359 68821,6917.937,95.439,540.627,538.978,0.0
52491.0,STARLINK-3908,PAYLOAD,2023-08-01 19:50:09,15.08851914,6.07e-05,53.2183,357.7117,75.4609,284.645,0.00023377,3.436e-05,0.0,0 STARLINK-3908,1 52491U 22049AS  23213.82649777  .00003436  00000-0  23377-3 0  9990,2 52491  53.2183 357.7117 0000607  75.4609 284.6450 15.08851914 69006,6917.844,95.437,540.129,539.289,0.0
52491.0,STARLINK-3908,PAYLOAD,2023-08-02 10:08:38,15.0883764,8.43e-05,53.2178,355.035,62.8073,297.3005,0.00034551,5.215e-05,0.0,0 STARLINK-3908,1 52491U 22049AS  23214.42266520  .00005215  00000-0  34551-3 0  9991,2 52491  53.2178 355.0350 0000843  62.8073 297.3005 15.08837640 69093,6917.888,95.438,540.336,539.169,0.0
52491.0,STARLINK-3908,PAYLOAD,2023-08-02 16:30:10,15.0884954,8.68e-05,53.2188,353.8477,74.1406,285.9682,0.00043227,6.6e-05,0.0,0 STARLINK-3908,1 52491U 22049AS  23214.68761661  .00006600  00000-0  43227-3 0  9994,2 52491  53.2188 353.8477 0000868  74.1406 285.9682 15.08849540 69134,6917.851,95.437,540.317,539.116,0.0
52491.0,STARLINK-3908,PAYLOAD,2023-08-03 03:37:52,15.08847907,4.83e-05,53.2182,351.764,58.5008,301.6032,6.0892e-05,6.82e-06,0.0,0 STARLINK-3908,1 52491U 22049AS  23215.15130007  .00000682  00000-0  60892-4 0  9993,2 52491  53.2182 351.7640 0000483  58.5008 301.6032 15.08847907 69202,6917.856,95.437,540.055,539.387,0.0
52491.0,STARLINK-3908,PAYLOAD,2023-08-03 16:20:56,15.08855077,6.53e-05,53.2175,349.3865,68.8113,291.2949,-3.5144e-05,-8.47e-06,0.0,0 STARLINK-3908,1 52491U 22049AS  23215.68121304 -.00000847  00000-0 -35144-4 0  9998,2 52491  53.2175 349.3865 0000653  68.8113 291.2949 15.08855077 69282,6917.834,95.437,540.151,539.248,0.0
52491.0,STARLINK-3908,PAYLOAD,2023-08-04 16:11:44,15.08847712,8.1e-05,53.2186,344.9253,67.301,292.8068,-5.4709e-05,-1.158e-05,0.0,0 STARLINK-3908,1 52491U 22049AS  23216.67482032 -.00001158  00000-0 -54709-4 0  9990,2 52491  53.2186 344.9253 0000810  67.3010 292.8068 15.08847712 69434,6917.857,95.437,540.282,539.161,0.0
52491.0,STARLINK-3908,PAYLOAD,2023-08-05 16:02:30,15.08859932,7.69e-05,53.2173,340.4663,72.1506,287.957,0.00035874,5.429e-05,0.0,0 STARLINK-3908,1 52491U 22049AS  23217.66840993  .00005429  00000-0  35874-3 0  9998,2 52491  53.2173 340.4663 0000769  72.1506 287.9570 15.08859932 69589,6917.819,95.436,540.216,539.152,0.0
52491.0,STARLINK-3908,PAYLOAD,2023-08-06 01:34:50,15.08840073,9.37e-05,53.2186,338.6815,67.1256,292.9835,0.00011102,1.48e-05,0.0,0 STARLINK-3908,1 52491U 22049AS  23218.06585971  .00001480  00000-0  11102-3 0  9996,2 52491  53.2186 338.6815 0000937  67.1256 292.9835 15.08840073 69647,6917.88,95.438,540.393,539.097,0.0
52491.0,STARLINK-3908,PAYLOAD,2023-08-06 17:28:42,15.08820654,8.13e-05,53.2165,335.7083,102.0471,258.0612,-9.1451e-05,-1.742e-05,0.0,0 STARLINK-3908,1 52491U 22049AS  23218.72827235 -.00001742  00000-0 -91451-4 0  9990,2 52491  53.2165 335.7083 0000813 102.0471 258.0612 15.08820654 69740,6917.94,95.439,540.367,539.242,0.0
52491.0,STARLINK-3908,PAYLOAD,2023-08-07 15:44:07,15.08852716,6.88e-05,53.217,331.5452,94.3829,265.7242,0.0015765,0.000249,0.0,0 STARLINK-3908,1 52491U 22049AS  23219.65564010  .00024900  00000-0  15765-2 0  9993,2 52491  53.2170 331.5452 0000688  94.3829 265.7242 15.08852716 69883,6917.842,95.437,540.182,539.231,0.0
52491.0,STARLINK-3908,PAYLOAD,2023-08-08 07:37:58,15.08865306,7.43e-05,53.2172,328.5702,100.367,259.7406,0.0012225,0.00019235,0.0,0 STARLINK-3908,1 52491U 22049AS  23220.31803443  .00019235  00000-0  12225-2 0  9997,2 52491  53.2172 328.5702 0000743 100.3670 259.7406 15.08865306 69988,6917.803,95.436,540.182,539.154,0.0
52491.0,STARLINK-3908,PAYLOAD,2023-08-09 07:28:44,15.08844953,6.77e-05,53.2173,324.1098,68.5264,291.58,1.682e-05,-2e-07,0.0,0 STARLINK-3908,1 52491U 22049AS  23221.31162981 -.00000020  00000-0  16820-4 0  9993,2 52491  53.2173 324.1098 0000677  68.5264 291.5800 15.08844953 70135,6917.865,95.437,540.199,539.262,0.0
52491.0,STARLINK-3908,PAYLOAD,2023-08-10 10:30:18,15.08845688,5.51e-05,53.2173,319.0554,98.1662,261.9393,0.00034099,5.144e-05,0.0,0 STARLINK-3908,1 52491U 22049AS  23222.43770969  .00005144  00000-0  34099-3 0  9996,2 52491  53.2173 319.0554 0000551  98.1662 261.9393 15.08845688 70300,6917.863,95.437,540.109,539.347,0.0
52491.0,STARLINK-3908,PAYLOAD,2023-08-11 10:21:05,15.0884259,5.28e-05,53.2166,314.5962,96.3641,263.7411,0.00012239,1.661e-05,0.0,0 STARLINK-3908,1 52491U 22049AS  23223.43130917  .00001661  00000-0  12239-3 0  9992,2 52491  53.2166 314.5962 0000528  96.3641 263.7411 15.08842590 70452,6917.872,95.437,540.103,539.372,0.0
52491.0,STARLINK-3908,PAYLOAD,2023-08-12 11:47:15,15.08840419,8.66e-05,53.2185,309.8388,83.1567,276.9523,4.3904e-05,4.11e-06,0.0,0 STARLINK-3908,1 52491U 22049AS  23224.49114985  .00000411  00000-0  43904-4 0  9992,2 52491  53.2185 309.8388 0000866  83.1567 276.9523 15.08840419 70614,6917.879,95.438,540.343,539.145,0.0
52491.0,STARLINK-3908,PAYLOAD,2023-08-13 13:13:25,15.08842987,7.53e-05,53.2169,305.0796,80.5107,279.597,0.00014178,1.97e-05,0.0,0 STARLINK-3908,1 52491U 22049AS  23225.55099103  .00001970  00000-0  14178-3 0  9995,2 52491  53.2169 305.0796 0000753  80.5107 279.5970 15.08842987 70777,6917.871,95.437,540.257,539.215,0.0
52491.0,STARLINK-3908,PAYLOAD,2023-08-14 09:53:26,15.08839348,7.26e-05,53.2169,301.2146,66.3602,293.7467,0.00014951,2.093e-05,0.0,0 STARLINK-3908,1 52491U 22049AS  23226.41211404  .00002093  00000-0  14951-3 0  9997,2 52491  53.2169 301.2146 0000726  66.3602 293.7467 15.08839348 70907,6917.882,95.438,540.25,539.245,0.0
52491.0,STARLINK-3908,PAYLOAD,2023-08-15 14:30:22,15.08851408,7.63e-05,53.2166,295.8619,73.4008,286.7068,0.00021344,3.112e-05,0.0,0 STARLINK-3908,1 52491U 22049AS  23227.60442764  .00003112  00000-0  21344-3 0  9991,2 52491  53.2166 295.8619 0000763  73.4008 286.7068 15.08851408 71087,6917.846,95.437,540.238,539.183,0.0
52491.0,STARLINK-3908,PAYLOAD,2023-08-16 09:35:00,15.08840111,8.39e-05,53.217,292.2916,82.2326,277.8762,6.506e-05,7.48e-06,0.0,0 STARLINK-3908,1 52491U 22049AS  23228.39931268  .00000748  00000-0  65060-4 0  9996,2 52491  53.2170 292.2916 0000839  82.2326 277.8762 15.08840111 71203,6917.88,95.438,540.325,539.165,0.0
52491.0,STARLINK-3908,PAYLOAD,2023-08-17 11:01:10,15.08846544,8.54e-05,53.2172,287.535,82.198,277.9109,5.7287e-05,6.24e-06,0.0,0 STARLINK-3908,1 52491U 22049AS  23229.45914923  .00000624  00000-0  57287-4 0  9998,2 52491  53.2172 287.5350 0000854  82.1980 277.9109 15.08846544 71365,6917.86,95.437,540.316,539.135,0.0
